{
  "type": "FeatureCollection",
  "features": [
    {
      "type": "Feature",
      "properties": {
        "norad_id": 54741,
        "name": "GALAXY 35 (G-35)",
        "group": "intelsat",
        "lat": 0.009388418224265175,
        "lon": 58.804634564972865,
        "alt_km": 35793.642986622035,
        "timestamp": "2025-12-22T04:03:38.829930+00:00",
        "meta_object_name": "GALAXY 35 (G-35)",
        "meta_object_id": "2022-170A",
        "meta_epoch": "2025-12-21T14:28:02.956800",
        "meta_mean_motion": 1.00271947,
        "meta_eccentricity": 0.0002168,
        "meta_inclination": 0.0152,
        "meta_ra_of_asc_node": 71.9497,
        "meta_arg_of_pericenter": 201.2574,
        "meta_mean_anomaly": 301.133,
        "meta_ephemeris_type": 0,
        "meta_classification_type": "U",
        "meta_norad_cat_id": 54741,
        "meta_element_set_no": 999,
        "meta_rev_at_epoch": 1111,
        "meta_bstar": 0,
        "meta_mean_motion_dot": -1.4e-06,
        "meta_mean_motion_ddot": 0,
        "tle_line1": "1 54741U 22170A   25355.60281200 -.00000140  00000+0  00000+0 0  9996",
        "tle_line2": "2 54741   0.0152  71.9497 0002168 201.2574 301.1330  1.00271947 11112"
      },
      "geometry": {
        "type": "Point",
        "coordinates": [
          58.804634564972865,
          0.009388418224265175
        ]
      }
    },
    {
      "type": "Feature",
      "properties": {
        "norad_id": 54742,
        "name": "GALAXY 36 (G-36)",
        "group": "intelsat",
        "lat": 0.025147549913526294,
        "lon": 62.877286927610314,
        "alt_km": 35786.440556770285,
        "timestamp": "2025-12-22T04:03:38.829942+00:00",
        "meta_object_name": "GALAXY 36 (G-36)",
        "meta_object_id": "2022-170B",
        "meta_epoch": "2025-12-21T14:29:10.348800",
        "meta_mean_motion": 1.00269012,
        "meta_eccentricity": 4.22e-05,
        "meta_inclination": 0.0152,
        "meta_ra_of_asc_node": 34.6943,
        "meta_arg_of_pericenter": 312.9933,
        "meta_mean_anomaly": 231.0222,
        "meta_ephemeris_type": 0,
        "meta_classification_type": "U",
        "meta_norad_cat_id": 54742,
        "meta_element_set_no": 999,
        "meta_rev_at_epoch": 1099,
        "meta_bstar": 0,
        "meta_mean_motion_dot": 0,
        "meta_mean_motion_ddot": 0,
        "tle_line1": "1 54742U 22170B   25355.60359200  .00000000  00000+0  00000+0 0  9997",
        "tle_line2": "2 54742   0.0152  34.6943 0000422 312.9933 231.0222  1.00269012 10991"
      },
      "geometry": {
        "type": "Point",
        "coordinates": [
          62.877286927610314,
          0.025147549913526294
        ]
      }
    },
    {
      "type": "Feature",
      "properties": {
        "norad_id": 57493,
        "name": "GALAXY 37 (G-37)",
        "group": "intelsat",
        "lat": 0.006952380722504186,
        "lon": 24.89525370741904,
        "alt_km": 35789.12857996745,
        "timestamp": "2025-12-22T04:03:38.829953+00:00",
        "meta_object_name": "GALAXY 37 (G-37)",
        "meta_object_id": "2023-112A",
        "meta_epoch": "2025-12-21T16:01:01.554240",
        "meta_mean_motion": 1.00271124,
        "meta_eccentricity": 0.0001946,
        "meta_inclination": 0.0098,
        "meta_ra_of_asc_node": 20.8093,
        "meta_arg_of_pericenter": 253.5236,
        "meta_mean_anomaly": 289.4001,
        "meta_ephemeris_type": 0,
        "meta_classification_type": "U",
        "meta_norad_cat_id": 57493,
        "meta_element_set_no": 999,
        "meta_rev_at_epoch": 876,
        "meta_bstar": 0,
        "meta_mean_motion_dot": 7.1e-07,
        "meta_mean_motion_ddot": 0,
        "tle_line1": "1 57493U 23112A   25355.66737910  .00000071  00000+0  00000+0 0  9992",
        "tle_line2": "2 57493   0.0098  20.8093 0001946 253.5236 289.4001  1.00271124  8768"
      },
      "geometry": {
        "type": "Point",
        "coordinates": [
          24.89525370741904,
          0.006952380722504186
        ]
      }
    }
  ]
}